[
    {
        "CCSDS_OMM_VERS": "3.0",
        "COMMENT": "GENERATED VIA SPACE-TRACK.ORG API",
        "CREATION_DATE": "2025-05-03T22:46:31",
        "ORIGINATOR": "18 SPCS",
        "OBJECT_NAME": "BEIDOU 3M15",
        "OBJECT_ID": "2018-078A",
        "CENTER_NAME": "EARTH",
        "REF_FRAME": "TEME",
        "TIME_SYSTEM": "UTC",
        "MEAN_ELEMENT_THEORY": "SGP4",
        "EPOCH": "2025-05-03T07:52:34.412448",
        "MEAN_MOTION": "1.86232276",
        "ECCENTRICITY": "0.00078450",
        "INCLINATION": "54.4576",
        "RA_OF_ASC_NODE": "314.3155",
        "ARG_OF_PERICENTER": "30.0056",
        "MEAN_ANOMALY": "330.0402",
        "EPHEMERIS_TYPE": "0",
        "CLASSIFICATION_TYPE": "U",
        "NORAD_CAT_ID": "43647",
        "ELEMENT_SET_NO": "999",
        "REV_AT_EPOCH": "4453",
        "BSTAR": "0.00000000000000",
        "MEAN_MOTION_DOT": "-0.00000066",
        "MEAN_MOTION_DDOT": "0.0000000000000",
        "SEMIMAJOR_AXIS": "27906.061",
        "PERIOD": "773.228",
        "APOAPSIS": "21549.818",
        "PERIAPSIS": "21506.034",
        "OBJECT_TYPE": "PAYLOAD",
        "RCS_SIZE": "LARGE",
        "COUNTRY_CODE": "PRC",
        "LAUNCH_DATE": "2018-10-15",
        "SITE": "XSC",
        "DECAY_DATE": null,
        "FILE": "4718113",
        "GP_ID": "286780155",
        "TLE_LINE0": "0 BEIDOU 3M15",
        "TLE_LINE1": "1 43647U 18078A   25123.32817607 -.00000066  00000-0  00000+0 0  9997",
        "TLE_LINE2": "2 43647  54.4576 314.3155 0007845  30.0056 330.0402  1.86232276 44532"
    }
]